[{"OBJECT_NAME":"NUSHSAT1","OBJECT_ID":"2025-052B","EPOCH":"2026-03-09T15:31:41.225952","MEAN_MOTION":15.31903202,"ECCENTRICITY":0.0005501,"INCLINATION":97.4095,"RA_OF_ASC_NODE":325.7239,"ARG_OF_PERICENTER":84.7512,"MEAN_ANOMALY":275.4357,"EPHEMERIS_TYPE":0,"CLASSIFICATION_TYPE":"U","NORAD_CAT_ID":63211,"ELEMENT_SET_NO":999,"REV_AT_EPOCH":5488,"BSTAR":0.00074857,"MEAN_MOTION_DOT":0.00023034,"MEAN_MOTION_DDOT":0},{"OBJECT_NAME":"STARLINK-34772","OBJECT_ID":"2025-161F","EPOCH":"2026-03-09T20:10:11.587296","MEAN_MOTION":15.30214575,"ECCENTRICITY":8.383e-5,"INCLINATION":53.157,"RA_OF_ASC_NODE":293.452,"ARG_OF_PERICENTER":108.4663,"MEAN_ANOMALY":251.6429,"EPHEMERIS_TYPE":0,"CLASSIFICATION_TYPE":"U","NORAD_CAT_ID":65020,"ELEMENT_SET_NO":999,"REV_AT_EPOCH":3546,"BSTAR":0.00092599259,"MEAN_MOTION_DOT":0.00027179,"MEAN_MOTION_DDOT":0}]
